STARLINK-35513          
1 65930U 25225W   26068.54510961  .00024845  00000+0  84879-3 0  9993
2 65930  53.1585 166.5137 0001075  81.9087 278.2036 15.30176238 24388
GLOBAL-34               
1 68098U 26043A   26068.47466435  .00014018  00000+0  45822-3 0  9994
2 68098  42.0215  76.7399 0006884 289.2632  70.7460 15.31488019   538
